{
  "norad_id": 68623,
  "name": "STARLINK-37284",
  "history": [
    {
      "epoch": "2026-04-16T22:03:04.433184Z",
      "apogee_km": 328.190451132471,
      "perigee_km": 326.71629414494964,
      "latitude_deg": 1.0137884913765878e-05,
      "longitude_deg": 128.7363168517839,
      "height_km": 330.3809639527884,
      "semi_major_axis_km": 6705.59037263871,
      "eccentricity": 0.00010992,
      "inclination_deg": 97.285,
      "raan_deg": 304.5644,
      "arg_perigee_deg": 70.4291,
      "mean_anomaly_deg": 289.7096,
      "mean_motion_rev_day": 15.81055925
    },
    {
      "epoch": "2026-04-19T00:00:02.000160Z",
      "apogee_km": 329.2084605691862,
      "perigee_km": 327.4572671583355,
      "latitude_deg": -43.5557822270649,
      "longitude_deg": 106.58704716725279,
      "height_km": 345.95208256255455,
      "semi_major_axis_km": 6706.469863863761,
      "eccentricity": 0.00013056,
      "inclination_deg": 97.2839,
      "raan_deg": 306.7653,
      "arg_perigee_deg": 103.8186,
      "mean_anomaly_deg": 212.4717,
      "mean_motion_rev_day": 15.80744924
    },
    {
      "epoch": "2026-04-20T14:10:00.761376Z",
      "apogee_km": 328.94423530303357,
      "perigee_km": 326.8467224642891,
      "latitude_deg": -3.7356772912888205e-05,
      "longitude_deg": -112.73426019504079,
      "height_km": 331.09347474744646,
      "semi_major_axis_km": 6706.0324788836615,
      "eccentricity": 0.00015639,
      "inclination_deg": 97.2837,
      "raan_deg": 308.4473,
      "arg_perigee_deg": 91.3375,
      "mean_anomaly_deg": 268.8072,
      "mean_motion_rev_day": 15.80899577
    },
    {
      "epoch": "2026-04-22T14:46:55.474176Z",
      "apogee_km": 328.3260674973599,
      "perigee_km": 327.69340961404396,
      "latitude_deg": -4.772770332344708e-05,
      "longitude_deg": -121.81498913493141,
      "height_km": 330.97461734856665,
      "semi_major_axis_km": 6706.146738555702,
      "eccentricity": 4.717e-05,
      "inclination_deg": 97.2842,
      "raan_deg": 310.5911,
      "arg_perigee_deg": 48.2915,
      "mean_anomaly_deg": 311.8393,
      "mean_motion_rev_day": 15.80859174
    },
    {
      "epoch": "2026-04-24T18:26:09.127680Z",
      "apogee_km": 328.7943418216164,
      "perigee_km": 327.0883154948051,
      "latitude_deg": 4.248576368386487e-06,
      "longitude_deg": -176.4674346288128,
      "height_km": 331.1132213133549,
      "semi_major_axis_km": 6706.07832865821,
      "eccentricity": 0.0001272,
      "inclination_deg": 97.2835,
      "raan_deg": 312.8669,
      "arg_perigee_deg": 89.8601,
      "mean_anomaly_deg": 270.2813,
      "mean_motion_rev_day": 15.80883364
    },
    {
      "epoch": "2026-04-24T18:26:09.128544Z",
      "apogee_km": 328.79460723640113,
      "perigee_km": 327.0880444240438,
      "latitude_deg": -3.283011137057537e-07,
      "longitude_deg": -176.46743765699358,
      "height_km": 331.1132178323908,
      "semi_major_axis_km": 6706.078325830222,
      "eccentricity": 0.00012724,
      "inclination_deg": 97.2835,
      "raan_deg": 312.8669,
      "arg_perigee_deg": 89.8601,
      "mean_anomaly_deg": 270.2813,
      "mean_motion_rev_day": 15.80883365
    },
    {
      "epoch": "2026-04-27T07:10:07.172832Z",
      "apogee_km": 327.88412584047364,
      "perigee_km": 322.93288712938374,
      "latitude_deg": -3.214151939546191e-05,
      "longitude_deg": -7.272291340364725,
      "height_km": 326.1512126265645,
      "semi_major_axis_km": 6703.545506484928,
      "eccentricity": 0.0003693,
      "inclination_deg": 97.2839,
      "raan_deg": 315.5481,
      "arg_perigee_deg": 10.6658,
      "mean_anomaly_deg": 349.4688,
      "mean_motion_rev_day": 15.81779414
    },
    {
      "epoch": "2026-04-28T19:40:00.154272Z",
      "apogee_km": 329.0420261028412,
      "perigee_km": 326.9228923537239,
      "latitude_deg": -2.4750239652228772e-05,
      "longitude_deg": 165.36283120855663,
      "height_km": 331.16063364765415,
      "semi_major_axis_km": 6706.119459228282,
      "eccentricity": 0.000158,
      "inclination_deg": 97.2823,
      "raan_deg": 317.1529,
      "arg_perigee_deg": 90.2538,
      "mean_anomaly_deg": 269.8911,
      "mean_motion_rev_day": 15.8086882
    },
    {
      "epoch": "2026-04-29T19:58:27.729696Z",
      "apogee_km": 329.6087996647266,
      "perigee_km": 326.21687965582623,
      "latitude_deg": 5.360943052525202e-07,
      "longitude_deg": 160.8210506182578,
      "height_km": 330.0854778661219,
      "semi_major_axis_km": 6706.049839660276,
      "eccentricity": 0.0002529,
      "inclination_deg": 97.2825,
      "raan_deg": 318.2243,
      "arg_perigee_deg": 53.8757,
      "mean_anomaly_deg": 306.2745,
      "mean_motion_rev_day": 15.80893438
    },
    {
      "epoch": "2026-04-30T12:41:08.734848Z",
      "apogee_km": 328.7795124356808,
      "perigee_km": 327.0493511662762,
      "latitude_deg": -8.176622361351043e-05,
      "longitude_deg": -89.79960634069585,
      "height_km": 330.7739277709332,
      "semi_major_axis_km": 6706.051431800978,
      "eccentricity": 0.000129,
      "inclination_deg": 97.2831,
      "raan_deg": 318.9608,
      "arg_perigee_deg": 68.6774,
      "mean_anomaly_deg": 291.4631,
      "mean_motion_rev_day": 15.80892875
    },
    {
      "epoch": "2026-05-02T11:46:55.295328Z",
      "apogee_km": 328.89902176055875,
      "perigee_km": 326.8215038085482,
      "latitude_deg": -3.998714924140364e-05,
      "longitude_deg": -76.10229125938872,
      "height_km": 331.3103141051935,
      "semi_major_axis_km": 6705.997262784553,
      "eccentricity": 0.0001549,
      "inclination_deg": 97.2833,
      "raan_deg": 321.0363,
      "arg_perigee_deg": 105.4275,
      "mean_anomaly_deg": 254.7164,
      "mean_motion_rev_day": 15.8091203
    },
    {
      "epoch": "2026-05-03T13:36:36.081792Z",
      "apogee_km": 330.6159155659916,
      "perigee_km": 327.7760307851486,
      "latitude_deg": -5.324087567186406e-05,
      "longitude_deg": -103.44505413096839,
      "height_km": 332.2402588617866,
      "semi_major_axis_km": 6707.33297317557,
      "eccentricity": 0.0002117,
      "inclination_deg": 97.2825,
      "raan_deg": 322.1742,
      "arg_perigee_deg": 84.8413,
      "mean_anomaly_deg": 275.3096,
      "mean_motion_rev_day": 15.80439815
    },
    {
      "epoch": "2026-05-04T20:00:01.999008Z",
      "apogee_km": 344.94374032374253,
      "perigee_km": 343.3976095585058,
      "latitude_deg": -14.033052731097152,
      "longitude_deg": 162.60213966466375,
      "height_km": 350.44749276132393,
      "semi_major_axis_km": 6722.307674941124,
      "eccentricity": 0.000115,
      "inclination_deg": 97.2845,
      "raan_deg": 323.5069,
      "arg_perigee_deg": 94.702,
      "mean_anomaly_deg": 251.373,
      "mean_motion_rev_day": 15.75161844
    },
    {
      "epoch": "2026-05-05T20:00:03.000384Z",
      "apogee_km": 345.1683727051568,
      "perigee_km": 343.31568504479856,
      "latitude_deg": -71.61515674597618,
      "longitude_deg": -41.64574524988397,
      "height_km": 371.6288283046408,
      "semi_major_axis_km": 6722.379028874977,
      "eccentricity": 0.0001378,
      "inclination_deg": 97.2851,
      "raan_deg": 324.557,
      "arg_perigee_deg": 100.7543,
      "mean_anomaly_deg": 152.1546,
      "mean_motion_rev_day": 15.75136765
    },
    {
      "epoch": "2026-05-06T20:00:01.999008Z",
      "apogee_km": 344.66437952394244,
      "perigee_km": 342.9287762741278,
      "latitude_deg": 20.24201261994854,
      "longitude_deg": -16.405690862176066,
      "height_km": 346.2872810488883,
      "semi_major_axis_km": 6721.933577899034,
      "eccentricity": 0.0001291,
      "inclination_deg": 97.2849,
      "raan_deg": 325.6042,
      "arg_perigee_deg": 86.9053,
      "mean_anomaly_deg": 72.6714,
      "mean_motion_rev_day": 15.7529334
    },
    {
      "epoch": "2026-05-07T20:00:01.999008Z",
      "apogee_km": 345.03508887327735,
      "perigee_km": 343.09909409492957,
      "latitude_deg": 65.58069716661274,
      "longitude_deg": 144.71387300664657,
      "height_km": 354.5527989536124,
      "semi_major_axis_km": 6722.204091484104,
      "eccentricity": 0.000144,
      "inclination_deg": 97.2848,
      "raan_deg": 326.6548,
      "arg_perigee_deg": 91.5961,
      "mean_anomaly_deg": 334.9422,
      "mean_motion_rev_day": 15.75198252
    },
    {
      "epoch": "2026-05-08T12:29:25.882080Z",
      "apogee_km": 344.9627135857236,
      "perigee_km": 343.0751322025744,
      "latitude_deg": 1.5316535693740828e-05,
      "longitude_deg": -86.33623016719442,
      "height_km": 346.3954735237336,
      "semi_major_axis_km": 6722.155922894149,
      "eccentricity": 0.0001404,
      "inclination_deg": 97.283,
      "raan_deg": 327.3728,
      "arg_perigee_deg": 33.1182,
      "mean_anomaly_deg": 327.0171,
      "mean_motion_rev_day": 15.75215183
    },
    {
      "epoch": "2026-05-09T12:53:07.417824Z",
      "apogee_km": 345.26782763949814,
      "perigee_km": 342.7994465815518,
      "latitude_deg": 2.04561499310403e-05,
      "longitude_deg": -92.19336058316232,
      "height_km": 346.117499677133,
      "semi_major_axis_km": 6722.170637110525,
      "eccentricity": 0.0001836,
      "inclination_deg": 97.2842,
      "raan_deg": 328.4406,
      "arg_perigee_deg": 28.6711,
      "mean_anomaly_deg": 331.4655,
      "mean_motion_rev_day": 15.75210011
    }
  ]
}